      2.10          N: GNSS NAV DATA                        RINEX VERSION / TYPE
fic2rin                                 08/28/2018 00:08:54 PGM / RUN BY / DATE
                                                            END OF HEADER
 3 18  8 27 18  0  0.0 1.278785057366e-04 5.570655048359e-12 0.000000000000e+00
    7.300000000000e+01-9.525000000000e+01 4.336609208609e-09 1.929619638575e+00
   -4.963949322701e-06 1.669466029853e-03 1.054443418980e-05 5.153701828003e+03
    1.512000000000e+05-3.352761268616e-08 2.949973126267e+00 2.793967723846e-08
    9.619404268971e-01 1.765312500000e+02 5.891163000643e-01-7.962474526167e-09
   -3.221562762449e-10 1.000000000000e+00 2.016000000000e+03 0.000000000000e+00
    2.400000000000e+00 0.000000000000e+00 1.862645149231e-09 7.300000000000e+01
    1.440060000000e+05 4.000000000000e+00
14 18  8 27 18  0  0.0-9.751645848155e-05 1.136868377216e-13 0.000000000000e+00
    1.600000000000e+01 5.600000000000e+01 4.555189741937e-09-1.439835884247e+00
    2.885237336159e-06 1.007454178762e-02 9.033828973770e-06 5.153619785309e+03
    1.512000000000e+05 2.440065145493e-07-2.209706169943e+00 2.291053533554e-07
    9.608139902165e-01 2.072187500000e+02-1.943083807000e+00-8.041049227691e-09
    4.000166622996e-10 1.000000000000e+00 2.016000000000e+03 0.000000000000e+00
    2.400000000000e+00 0.000000000000e+00-9.778887033463e-09 1.600000000000e+01
    1.440060000000e+05 4.000000000000e+00
11 18  8 27 18  0  0.0-7.221028208733e-04 2.501110429876e-12 0.000000000000e+00
    1.000000000000e+01 6.793750000000e+01 6.093825260854e-09 2.290907990725e+00
    3.289431333542e-06 1.705831347499e-02 1.605600118637e-06 5.153651670456e+03
    1.512000000000e+05 1.899898052216e-07 1.473877859215e+00-1.061707735062e-07
    9.060959883863e-01 3.150312500000e+02 1.805404487464e+00-8.847511391505e-09
    1.721500278825e-10 1.000000000000e+00 2.016000000000e+03 0.000000000000e+00
    2.400000000000e+00 0.000000000000e+00-1.210719347000e-08 1.000000000000e+01
    1.440060000000e+05 4.000000000000e+00
 7 18  8 27 18  0  0.0 1.344466581941e-04-6.593836587854e-12 0.000000000000e+00
    5.600000000000e+01-1.362500000000e+01 4.935562728856e-09 2.290083043905e+00
   -8.810311555862e-07 1.205667923205e-02 4.202127456665e-06 5.153637865067e+03
    1.512000000000e+05-1.806765794754e-07-1.222478453569e+00-1.471489667892e-07
    9.573480973681e-01 2.986250000000e+02-2.497685514467e+00-8.291773957096e-09
   -1.503634060966e-10 1.000000000000e+00 2.016000000000e+03 0.000000000000e+00
    2.400000000000e+00 0.000000000000e+00-1.117587089539e-08 5.600000000000e+01
    1.440060000000e+05 4.000000000000e+00
32 18  8 27 18  0  0.0-4.403786733747e-04 1.023181539495e-11 0.000000000000e+00
    1.400000000000e+01 4.950000000000e+01 4.639121809473e-09-4.310058242083e-01
    2.421438694000e-06 2.309888368472e-03 9.639188647270e-06 5.153700012207e+03
    1.512000000000e+05 4.842877388000e-08-2.294872065696e+00 7.264316082001e-08
    9.570232359277e-01 1.926562500000e+02-2.532931349592e+00-8.131052976708e-09
    4.025167664390e-10 1.000000000000e+00 2.016000000000e+03 0.000000000000e+00
    2.400000000000e+00 0.000000000000e+00 4.656612873077e-10 1.400000000000e+01
    1.440060000000e+05 4.000000000000e+00
30 18  8 27 18  0  0.0 3.205658867955e-05-5.002220859751e-12 0.000000000000e+00
    9.000000000000e+00-1.756250000000e+01 5.278434153684e-09 2.281817368041e+00
   -9.220093488693e-07 3.625968820415e-03 4.014000296593e-06 5.153689662933e+03
    1.512000000000e+05-3.166496753693e-08-1.190230238530e+00 2.048909664154e-08
    9.429294363387e-01 2.948437500000e+02-2.986078681774e+00-8.521426380184e-09
   -2.142946405177e-10 1.000000000000e+00 2.016000000000e+03 0.000000000000e+00
    2.400000000000e+00 0.000000000000e+00 3.725290298462e-09 9.000000000000e+00
    1.440060000000e+05 4.000000000000e+00
22 18  8 27 18  0  0.0-5.018548108637e-04-1.125499693444e-11 0.000000000000e+00
    5.500000000000e+01-9.737500000000e+01 5.162357890070e-09-1.893099740780e+00
   -4.997476935387e-06 7.140054600313e-03 9.696930646896e-06 5.153738954544e+03
    1.512000000000e+05 8.195638656616e-08 2.887030495128e+00 1.545995473862e-07
    9.260864099133e-01 1.706250000000e+02-1.492307589995e+00-8.299274269514e-09
   -3.510860527148e-10 1.000000000000e+00 2.016000000000e+03 0.000000000000e+00
    2.400000000000e+00 0.000000000000e+00-1.816079020500e-08 5.500000000000e+01
    1.440060000000e+05 4.000000000000e+00
24 18  8 27 18  0  0.0-5.454663187265e-05-4.547473508865e-13 0.000000000000e+00
    3.100000000000e+01-1.112500000000e+01 5.265576475253e-09-2.989515787321e+00
   -5.606561899185e-07 7.152777630836e-03 3.648921847343e-06 5.153624870300e+03
    1.512000000000e+05-1.303851604462e-08-1.283818731518e+00-6.519258022308e-08
    9.404181560538e-01 2.983437500000e+02 5.344431893383e-01-8.474638717005e-09
   -6.250260348431e-11 1.000000000000e+00 2.016000000000e+03 0.000000000000e+00
    3.400000000000e+00 0.000000000000e+00 2.793967723846e-09 3.100000000000e+01
    1.440060000000e+05 4.000000000000e+00
25 18  8 27 18  0  0.0-6.380584090948e-04-5.798028723802e-12 0.000000000000e+00
    6.400000000000e+01-1.668750000000e+01 4.001238096199e-09 1.271435931656e+00
   -9.834766387939e-07 7.441120920703e-03 1.110509037971e-05 5.153603870392e+03
    1.512000000000e+05-8.381903171539e-08-1.889727223067e-01 6.891787052155e-08
    9.736114673742e-01 1.709687500000e+02 8.655272365921e-01-7.819968590223e-09
   -3.928735076157e-10 1.000000000000e+00 2.016000000000e+03 0.000000000000e+00
    2.400000000000e+00 0.000000000000e+00 5.587935447693e-09 6.400000000000e+01
    1.440060000000e+05 4.000000000000e+00
13 18  8 27 18  0  0.0-9.026285260916e-05 6.821210263297e-13 0.000000000000e+00
    5.000000000000e+01 5.225000000000e+01 4.314822586823e-09-2.389543140006e+00
    2.747401595116e-06 3.333609551191e-03 8.568167686462e-06 5.153666036606e+03
    1.512000000000e+05 2.793967723846e-08-2.167169083817e+00-3.725290298462e-08
    9.682199808085e-01 2.207187500000e+02 1.488559846961e+00-7.874256565821e-09
    3.693010971588e-10 1.000000000000e+00 2.016000000000e+03 0.000000000000e+00
    2.400000000000e+00 0.000000000000e+00-1.117587089539e-08 5.000000000000e+01
    1.440060000000e+05 4.000000000000e+00
23 18  8 27 18  0  0.0-2.120216377079e-04 6.821210263297e-13 0.000000000000e+00
    6.000000000000e+01 4.787500000000e+01 4.795914054785e-09-2.521988413683e+00
    2.356246113777e-06 1.265295792837e-02 9.575858712196e-06 5.153746379852e+03
    1.512000000000e+05 1.601874828339e-07-2.302791160175e+00-1.583248376846e-07
    9.434996364555e-01 1.826875000000e+02-2.331799261827e+00-7.999976088258e-09
    5.214502919263e-10 1.000000000000e+00 2.016000000000e+03 0.000000000000e+00
    2.400000000000e+00 0.000000000000e+00-2.002343535423e-08 6.000000000000e+01
    1.440060000000e+05 4.000000000000e+00
21 18  8 27 18  0  0.0-3.461772575974e-04 5.798028723802e-12 0.000000000000e+00
    6.500000000000e+01-2.037500000000e+01 5.577732334940e-09 1.169581745249e+00
   -1.516193151474e-06 2.435308776330e-02 2.216547727585e-06 5.153635931015e+03
    1.512000000000e+05-3.296881914139e-07 1.850339081273e+00-5.494803190231e-07
    9.447200846407e-01 3.347187500000e+02-1.533106681167e+00-9.037876463832e-09
    1.428630936784e-12 1.000000000000e+00 2.016000000000e+03 0.000000000000e+00
    2.400000000000e+00 0.000000000000e+00-1.024454832077e-08 6.500000000000e+01
    1.440060000000e+05 4.000000000000e+00
19 18  8 27 18  0  0.0-4.080445505679e-04 3.410605131648e-12 0.000000000000e+00
    6.200000000000e+01 8.903125000000e+01 4.154815921903e-09 1.619370514493e+00
    4.529953002930e-06 9.749916032888e-03 7.577240467072e-06 5.153723588943e+03
    1.512000000000e+05-1.844018697739e-07 9.519749835906e-01-2.067536115646e-07
    9.806693595351e-01 2.447187500000e+02 1.268647108016e+00-7.939973588913e-09
    4.678766317969e-10 1.000000000000e+00 2.016000000000e+03 0.000000000000e+00
    2.400000000000e+00 0.000000000000e+00-1.536682248116e-08 6.200000000000e+01
    1.440060000000e+05 4.000000000000e+00
17 18  8 27 18  0  0.0-6.251689046621e-05 4.320099833421e-12 0.000000000000e+00
    7.400000000000e+01 9.500000000000e+01 4.101242261774e-09-1.171172675974e+00
    5.280598998070e-06 1.248476107139e-02 7.925555109978e-06 5.153605943680e+03
    1.512000000000e+05-6.519258022308e-08 9.051781199363e-01 2.868473529816e-07
    9.831103158851e-01 2.421875000000e+02-1.775720557157e+00-7.955331371484e-09
    4.543046378974e-10 1.000000000000e+00 2.016000000000e+03 0.000000000000e+00
    2.400000000000e+00 0.000000000000e+00-1.117587089539e-08 7.400000000000e+01
    1.440060000000e+05 4.000000000000e+00
26 18  8 27 18  0  0.0-3.853626549244e-05 1.170974428533e-11 0.000000000000e+00
    6.800000000000e+01-2.656250000000e+01 4.369110562421e-09 7.510859172404e-01
   -1.339241862297e-06 2.861767192371e-03 1.125410199165e-05 5.153714372635e+03
    1.512000000000e+05 5.401670932770e-08-2.125620159355e-01 4.470348358154e-08
    9.550672164403e-01 1.589687500000e+02 7.424394394113e-02-7.947473901331e-09
   -4.071598169835e-10 1.000000000000e+00 2.016000000000e+03 0.000000000000e+00
    2.400000000000e+00 0.000000000000e+00 7.450580596924e-09 6.800000000000e+01
    1.440060000000e+05 4.000000000000e+00
16 18  8 27 18  0  0.0 1.172069460154e-05-1.705302565824e-12 0.000000000000e+00
    5.300000000000e+01-1.190625000000e+01 3.674081611675e-09-1.828755606326e-01
   -4.675239324570e-07 9.984426666051e-03 1.196004450321e-05 5.153690412521e+03
    1.512000000000e+05 1.154839992523e-07-1.092158257118e-01 7.450580596924e-08
    9.864758862003e-01 1.623750000000e+02 5.213215002759e-01-7.724250317459e-09
   -3.025126008641e-10 1.000000000000e+00 2.016000000000e+03 0.000000000000e+00
    2.400000000000e+00 0.000000000000e+00-1.071020960808e-08 5.300000000000e+01
    1.440060000000e+05 4.000000000000e+00
